[Satellite]
VERSION=1.1
NAME=ELEKTRO-L 2
NICKNAME=ELEKTRO-L 2
TLE1=1 41105U 15074A   22342.55111637 -.00000102  00000+0  00000+0 0  9992
TLE2=2 41105   3.4264  86.0741 0002831 147.5144  27.6245  1.00272336 25612
STATUS=0
